{"type":"FeatureCollection","licence":"Data © OpenStreetMap contributors, ODbL 1.0. http://osm.org/copyright","features":[{"type":"Feature","properties":{"place_id":210546361,"osm_type":"relation","osm_id":1386836,"place_rank":16,"category":"boundary","type":"administrative","importance":0.6383368365783842,"addresstype":"town","name":"נצרת","display_name":"נצרת, נפת יזרעאל, מחוז הצפון, ישראל","address":{"town":"נצרת","state_district":"נפת יזרעאל","state":"מחוז הצפון","ISO3166-2-lvl4":"IL-Z","country":"ישראל","country_code":"il"}},"bbox":[35.2660515,32.6727661,35.3135350,32.7363002],"geometry":{"type":"Polygon","coordinates":[[[35.2660515,32.724013],[35.2662457,32.7228497],[35.2671767,32.7222152],[35.2676579,32.7213409],[35.2700787,32.7200575],[35.2716516,32.7189205],[35.273977,32.7150937],[35.2741211,32.7140674],[35.2723586,32.7126149],[35.2712524,32.7095468],[35.2716355,32.7094261],[35.2726378,32.7088377],[35.273459,32.7084472],[35.274321,32.7080996],[35.2754932,32.7078369],[35.2757438,32.7074343],[35.2761652,32.7071416],[35.276442,32.7068517],[35.276664,32.7064938],[35.2770385,32.7061627],[35.2771152,32.7060471],[35.2772637,32.7060178],[35.2777044,32.7061888],[35.2780549,32.7063791],[35.2785836,32.7065558],[35.2798938,32.7070529],[35.2803605,32.7072299],[35.2808663,32.7073039],[35.2806317,32.7071609],[35.2806123,32.7068972],[35.2807254,32.706754],[35.2811601,32.706517],[35.2812449,32.7064324],[35.2812971,32.7063326],[35.2813321,32.706159],[35.2812962,32.7057223],[35.2813287,32.7051119],[35.2814084,32.7049033],[35.2815006,32.7047675],[35.2818021,32.7045052],[35.2818678,32.7043355],[35.2817071,32.7034892],[35.2817716,32.703479],[35.2817655,32.703444],[35.2816994,32.7034508],[35.281611,32.7031443],[35.2811677,32.7027298],[35.2806078,32.70198],[35.2805614,32.7018408],[35.2805626,32.7015461],[35.280681,32.701218],[35.2808879,32.7009468],[35.281099,32.7007466],[35.2814366,32.7005266],[35.2821741,32.7002861],[35.2822009,32.7002601],[35.2820937,32.7000077],[35.2813498,32.6996041],[35.2811934,32.6994791],[35.2810093,32.699154],[35.2809729,32.6989996],[35.2810305,32.6986028],[35.2813629,32.697516],[35.2815169,32.6968487],[35.2818211,32.6964168],[35.2819474,32.6957782],[35.2819969,32.6956564],[35.2820757,32.6955741],[35.2823864,32.6954136],[35.2822101,32.6951817],[35.2817194,32.6944922],[35.2823095,32.6936692],[35.28295,32.6929025],[35.2830605,32.6923718],[35.2833157,32.6914065],[35.2829119,32.6912473],[35.2828759,32.6911194],[35.2829197,32.6910878],[35.2822135,32.6905848],[35.281734,32.6901555],[35.2814751,32.6900931],[35.2812279,32.6898251],[35.2808795,32.6896979],[35.2808608,32.6893018],[35.2811967,32.6891437],[35.2811384,32.6888622],[35.281012,32.6886539],[35.2805767,32.6882585],[35.2808085,32.6880908],[35.2804901,32.6877508],[35.2803789,32.6875202],[35.2806927,32.6873308],[35.2803292,32.6869439],[35.2802225,32.6865724],[35.279925,32.6863815],[35.279602,32.686489],[35.2796085,32.6862619],[35.2800293,32.6860447],[35.2799484,32.6856052],[35.2799779,32.6851502],[35.2800763,32.6849973],[35.2801089,32.6846603],[35.2805535,32.6835691],[35.2806619,32.6831825],[35.280737,32.6826944],[35.2809459,32.68224],[35.28132,32.6812967],[35.2815982,32.6810404],[35.281876,32.6802854],[35.2825673,32.6797475],[35.2828131,32.6796474],[35.2832511,32.6792579],[35.2837356,32.6789345],[35.2839547,32.6786317],[35.2839611,32.6786082],[35.2838914,32.6785975],[35.2840104,32.6783218],[35.2840742,32.6777337],[35.284008,32.6776277],[35.2840471,32.6774993],[35.2840505,32.6773358],[35.2840454,32.6771852],[35.2840242,32.6765578],[35.2841741,32.6760421],[35.2841636,32.6757749],[35.2842911,32.6753987],[35.2844325,32.6747598],[35.2849024,32.6739147],[35.2849772,32.6735939],[35.2849666,32.673271],[35.2865646,32.6728682],[35.2875197,32.6727661],[35.2882909,32.6728078],[35.2884516,32.6729452],[35.2888808,32.6734037],[35.2890285,32.6737102],[35.2882645,32.6740369],[35.2883216,32.6743764],[35.2883887,32.6745308],[35.2887769,32.6751439],[35.2891587,32.6759082],[35.2892178,32.6759704],[35.2893164,32.6760192],[35.2894545,32.6760261],[35.2894248,32.6762639],[35.2896576,32.6761995],[35.2898359,32.6760625],[35.2899732,32.6760524],[35.2906169,32.676215],[35.2912041,32.6762736],[35.2916536,32.6762526],[35.2923842,32.6761019],[35.2926797,32.6763498],[35.2930533,32.6766049],[35.2938054,32.6769872],[35.2942275,32.6771382],[35.2949682,32.6773125],[35.2972811,32.6775238],[35.2978011,32.6775902],[35.2982422,32.6776841],[35.2992034,32.6780092],[35.29977,32.6782679],[35.3004041,32.6786268],[35.3009147,32.6790097],[35.3034739,32.6815367],[35.3044526,32.6824556],[35.3048652,32.6828779],[35.3052359,32.6833967],[35.3054504,32.6838051],[35.3055525,32.6840954],[35.3056144,32.6842712],[35.3057309,32.684784],[35.3057837,32.6852974],[35.3057719,32.6855582],[35.3056697,32.6861702],[35.3055835,32.6864358],[35.3052929,32.6870365],[35.304943,32.6874909],[35.3044315,32.6879587],[35.3018678,32.6899971],[35.3016279,32.6901878],[35.3044183,32.6904727],[35.3044227,32.6920014],[35.3042806,32.6919996],[35.3038549,32.6926079],[35.3023135,32.6927406],[35.3030092,32.6952367],[35.3039935,32.6948468],[35.3043833,32.6947469],[35.3045176,32.6946486],[35.304589,32.6945313],[35.3049291,32.6945846],[35.3052639,32.6947286],[35.3053191,32.6947801],[35.3056503,32.6949097],[35.3061436,32.6951172],[35.308134,32.6970023],[35.3085369,32.6974508],[35.3092537,32.698498],[35.3090237,32.6984132],[35.3099892,32.6995827],[35.3099521,32.699607],[35.3097737,32.6994822],[35.3088076,32.7000077],[35.308812,32.7006659],[35.3088605,32.7009655],[35.3088566,32.7016665],[35.3089452,32.7019513],[35.308798,32.7019836],[35.3088029,32.7020775],[35.3088403,32.7022417],[35.308951,32.702489],[35.3092259,32.7025423],[35.310563,32.7022155],[35.3110883,32.7020205],[35.3111621,32.7019705],[35.3123328,32.703395],[35.3122741,32.7034367],[35.3123666,32.7037707],[35.3128819,32.7050347],[35.3131096,32.705476],[35.313535,32.7066315],[35.3133499,32.7068689],[35.3128777,32.7079426],[35.3127189,32.7081325],[35.3123656,32.7083399],[35.3121941,32.7083839],[35.3104311,32.7086498],[35.3089235,32.7089676],[35.3086259,32.7089925],[35.3082674,32.7089419],[35.3074512,32.7087915],[35.3073394,32.7087276],[35.3073185,32.7086892],[35.3071405,32.7086958],[35.306726,32.708774],[35.3064041,32.7089433],[35.3062577,32.7090818],[35.3061918,32.7091876],[35.3060662,32.7094567],[35.306038,32.70961],[35.3060511,32.7097629],[35.3061019,32.7098997],[35.3061344,32.7099675],[35.3060707,32.7100063],[35.3060962,32.7101258],[35.3063218,32.7106736],[35.3062937,32.7107375],[35.306248,32.710774],[35.3061533,32.7107857],[35.3067103,32.7113709],[35.306507,32.7115009],[35.3067809,32.7118005],[35.3069118,32.7119202],[35.3066293,32.7121222],[35.3066564,32.7122562],[35.3073184,32.7131397],[35.3067441,32.7136553],[35.3069153,32.7138504],[35.3066228,32.7140716],[35.3054864,32.7131229],[35.3054494,32.7131501],[35.3051821,32.7133877],[35.3054545,32.7137738],[35.3054961,32.7139406],[35.3055734,32.7140846],[35.3057611,32.7141897],[35.305654,32.7143501],[35.3054632,32.7142857],[35.3054187,32.714622],[35.3050164,32.7149436],[35.3054531,32.7152121],[35.3046607,32.715574],[35.3046702,32.7156061],[35.3045718,32.7156614],[35.3042835,32.7157095],[35.3039812,32.7158002],[35.3040686,32.7161974],[35.3028749,32.7165177],[35.3023001,32.7162014],[35.3011582,32.7152384],[35.3007235,32.7152138],[35.3003475,32.7150662],[35.3000464,32.7150762],[35.3000001,32.715613],[35.2999792,32.7166048],[35.2998537,32.7170913],[35.2997412,32.7172524],[35.2995659,32.7173738],[35.2993786,32.7175645],[35.2993221,32.7181381],[35.2991361,32.718539],[35.2989667,32.7187724],[35.2987016,32.7189837],[35.2980082,32.7193323],[35.2972049,32.7199172],[35.2970351,32.7200098],[35.2965586,32.7201958],[35.2956631,32.7206323],[35.2949044,32.7211447],[35.2947668,32.7212124],[35.2936135,32.7215751],[35.2927565,32.7216988],[35.2920228,32.7217019],[35.2901007,32.7218438],[35.2895867,32.721981],[35.2896163,32.7220419],[35.2887683,32.7225268],[35.2877369,32.7229532],[35.2867687,32.7238052],[35.2863947,32.7239199],[35.2857289,32.7244667],[35.2853007,32.7247833],[35.285067,32.7250043],[35.2847364,32.7254175],[35.2845805,32.7256825],[35.2843273,32.7264606],[35.2843255,32.7276687],[35.2842487,32.7278465],[35.2840245,32.7281305],[35.2839498,32.7285259],[35.2839783,32.7288077],[35.2820236,32.7291124],[35.2812501,32.7292813],[35.2808348,32.729409],[35.2806168,32.7293792],[35.2800272,32.7293638],[35.2794555,32.7294757],[35.2798924,32.7303811],[35.2822682,32.7314552],[35.2827321,32.7310833],[35.2829033,32.7308115],[35.2830192,32.7304671],[35.2832552,32.7301779],[35.2836978,32.7312117],[35.2837712,32.7314695],[35.2838335,32.7319127],[35.2838865,32.7319942],[35.2837799,32.7323412],[35.2836927,32.7328863],[35.2837884,32.7344858],[35.2837574,32.7351029],[35.2834453,32.7358462],[35.2834585,32.7363002],[35.2831751,32.7358249],[35.2826799,32.7354493],[35.2818197,32.7350152],[35.2812757,32.7349794],[35.2811216,32.7350661],[35.281002,32.7350766],[35.2806635,32.735303],[35.2804939,32.7353673],[35.2797003,32.7353012],[35.2793552,32.7352517],[35.2786522,32.7350065],[35.2778029,32.7348368],[35.2774139,32.7347858],[35.2764952,32.7345479],[35.2766455,32.7339981],[35.2766918,32.7332871],[35.2766756,32.7329285],[35.2765678,32.7322788],[35.2767485,32.7322354],[35.2770354,32.7321176],[35.2771483,32.7320269],[35.2771547,32.7319314],[35.2763584,32.7292754],[35.2755688,32.7296366],[35.2751007,32.7293694],[35.2741064,32.7286353],[35.2730262,32.7281742],[35.272462,32.7279643],[35.272395,32.7279648],[35.2718443,32.7277099],[35.271474,32.7275723],[35.2708844,32.7272546],[35.2707699,32.7271475],[35.2704127,32.7269868],[35.2691139,32.7266059],[35.26913,32.726336],[35.2680534,32.7256418],[35.2678239,32.7255193],[35.2669708,32.72465],[35.2660515,32.724013]],[[35.2870862,32.6879204],[35.2871121,32.6879604],[35.2872132,32.68806],[35.2875998,32.6882159],[35.2879,32.68848],[35.287845,32.6886587],[35.2880808,32.6888885],[35.2883313,32.6889965],[35.2888568,32.6892785],[35.2890535,32.6894125],[35.2891736,32.6895432],[35.2892928,32.6896186],[35.2894818,32.6896901],[35.2895705,32.6897644],[35.2895418,32.6899273],[35.289557,32.6901638],[35.2891088,32.6901327],[35.2890072,32.6901799],[35.2882764,32.6909354],[35.288298,32.6914574],[35.2889879,32.6924724],[35.2890137,32.692404],[35.2892807,32.6925295],[35.2907493,32.6920652],[35.2913685,32.6920676],[35.2921142,32.6921211],[35.2920774,32.6920601],[35.2917445,32.6917619],[35.2918485,32.6915954],[35.291671,32.6914337],[35.2916074,32.6912988],[35.2917427,32.6903955],[35.2917225,32.6901951],[35.2914208,32.689279],[35.2911709,32.689335],[35.290981,32.6885241],[35.2908903,32.6882881],[35.2907855,32.6882481],[35.2905084,32.6882094],[35.2903287,32.6881036],[35.2902407,32.6878839],[35.2902902,32.687212],[35.2898254,32.6867649],[35.2897703,32.6868765],[35.2890469,32.6873301],[35.2881758,32.6873566],[35.2876762,32.6873412],[35.2871846,32.6874069],[35.2870876,32.6873974],[35.2872451,32.6878504],[35.2870862,32.6879204]]]}}]}